ASTERIA                 
1 43020U 98067NH  18332.08302583  .00016701  00000-0  18312-3 0  9998
2 43020  51.6421 268.7515 0003231  78.8876 281.2482 15.63376809 58094
DELLINGR (RBLE)         
1 43021U 98067NJ  18332.20735050  .00007412  00000-0  96801-4 0  9991
2 43021  51.6394 272.5221 0003136  68.5926 291.5402 15.59806043 58052
OSIRIS-3U               
1 43027U 98067NL  18332.01505057  .00072156  00000-0  41949-3 0  9997
2 43027  51.6365 254.6084 0005137  99.5643 260.5938 15.77809439 58150
AEROCUBE 7B             
1 43042U 17071F   18332.17357206  .00002895  00000-0  81645-4 0  9999
2 43042  51.6391 322.0339 0005186 134.4525 225.6885 15.39880265 54862
AEROCUBE 7C             
1 43043U 17071G   18332.17337617  .00002832  00000-0  80082-4 0  9999
2 43043  51.6394 322.0416 0005264 135.9937 224.1467 15.39879351 54833
CHEFSAT                 
1 43044U 17071H   18331.46927300  .00005050  00000-0  12816-3 0  9999
2 43044  51.6399 323.3956 0005119 131.4524 228.6902 15.41469271 54757
ASGARDIA 1              
1 43049U 17071N   18331.55717291  .00002402  00000-0  69175-4 0  9999
2 43049  51.6399 324.6903 0002635 146.0533 214.0621 15.39995999 54733
ISARA                   
1 43050U 17071P   18331.94861166  .00004208  00000-0  10945-3 0  9991
2 43050  51.6393 321.3277 0002462 140.9882 219.1281 15.41172164 54827
FAUNA                   
1 43052U 17071R   18332.17749234  .00003207  00000-0  88442-4 0  9996
2 43052  51.6399 321.3458 0002589 143.3957 216.7205 15.40192174 54838
CORVUS BC3              
1 43118U 18004H   18331.93773476  .00000691  00000-0  32883-4 0  9996
2 43118  97.5142  34.6923 0009201 237.3452 122.6897 15.22515003 48621
MICROMAS-2A             
1 43131U 18004W   18332.21660973  .00001608  00000-0  70631-4 0  9992
2 43131  97.5156  35.2767 0008310 238.6683 121.3741 15.23380818 48689
GOMX4-B                 
1 43196U 18015E   18331.79652030  .00000523  00000-0  24638-4 0  9993
2 43196  97.3666  97.5994 0018057 305.0595  54.8966 15.23765655 45443
GOMX4-A                 
1 43197U 18015F   18332.11805556  .00000325  00000-0  16376-4 0  9994
2 43197  97.3685  97.9238 0017983 304.9548  51.4158 15.23834072 45494
1KUNS-PF                
1 43466U 98067NP  18332.11974190  .00014032  00000-0  17949-3 0  9995
2 43466  51.6397 277.1774 0001620  76.5910 283.5263 15.59506763 31244
UBAKUSAT                
1 43467U 98067NQ  18332.11162045  .00009567  00000-0  12971-3 0  9991
2 43467  51.6387 277.8733 0003202  42.1367 317.9871 15.58397210 31240
BATSU-CS1 (IRAZU)       
1 43468U 98067NR  18331.87759369  .00015344  00000-0  18956-3 0  9994
2 43468  51.6393 277.8099 0001638  78.5537 281.5640 15.60344863131202
CUBERRT                 
1 43546U 98067NU  18331.95412637  .00020313  00000-0  27304-3 0  9993
2 43546  51.6392 280.5623 0006858  88.8630 271.3148 15.57853761 21328
TEMPEST-D               
1 43547U 98067NV  18331.94761117  .00003245  00000-0  52972-4 0  9998
2 43547  51.6397 281.2642 0006763  85.4006 274.7757 15.55847151 20997
RAINCUBE                
1 43548U 98067NW  18331.46752695  .00009272  00000-0  13311-3 0  9996
2 43548  51.6392 283.3092 0006870  92.8208 267.3571 15.56878625 21376
HALOSAT                 
1 43549U 98067NX  18331.72483391  .00009461  00000-0  13563-3 0  9999
2 43549  51.6394 282.0289 0006810  95.7408 264.4360 15.56889459 20977
ENDUROSAT ONE           
1 43551U 98067NZ  18332.13691817  .00011913  00000-0  16512-3 0  9994
2 43551  51.6391 279.5290 0007385 102.6353 257.5465 15.57510968 21455
EQUISAT                 
1 43552U 98067PA  18331.18705253  .00009562  00000-0  13571-3 0  9998
2 43552  51.6392 284.4373 0007551  99.8981 260.2863 15.57144135 21264
AEROCUBE 12A            
1 43556U 18046C   18331.43097456  .00001886  00000-0  80706-4 0  9994
2 43556  51.6426 311.1744 0008974  65.3774 294.8140 15.28050506 20473
AEROCUBE 12B            
1 43557U 18046D   18331.49819657  .00001637  00000-0  71841-4 0  9990
2 43557  51.6425 310.8723 0008989  65.7760 294.4158 15.28001439 20433
UITMSAT-1               
1 43589U 98067PD  18331.87666420  .00010179  00000-0  14583-3 0  9996
2 43589  51.6390 281.5383 0006923 109.2067 250.9674 15.56807845 17101
MAYA-1                  
1 43590U 98067PE  18332.06729681  .00010595  00000-0  15133-3 0  9993
2 43590  51.6389 280.5623 0006989 110.6159 249.5583 15.56837890 17068
BHUTAN-1                
1 43591U 98067PF  18331.93613884  .00010425  00000-0  14880-3 0  9996
2 43591  51.6390 281.1866 0007073 111.4162 248.7585 15.56878059 17048
SIRIUSSAT-1             
1 43595U 98067PG  18331.90436015  .00009266  00000-0  13548-3 0  9997
2 43595  51.6392 281.7197 0004715  70.8022 289.3480 15.56388731 16216
SIRIUSSAT-2             
1 43596U 98067PH  18332.17089877  .00009898  00000-0  14502-3 0  9990
2 43596  51.6400 280.5103 0005358  73.7879 286.3702 15.56238249 16253
TANUSHA-3               
1 43597U 98067PJ  18331.90152004  .00011073  00000-0  15903-3 0  9998
2 43597  51.6378 281.6906 0004990  83.3128 276.8431 15.56642308 16210
SURFSAT                 
1 43614U 18070B   18331.79539805  .00002285  00000-0  63982-4 0  9995
2 43614  93.0333 279.7805 0018068  16.4317 343.7525 15.36560673 11243
CP-7 (DAVE)             
1 43615U 18070C   18331.79517682  .00002172  00000-0  60844-4 0  9994
2 43615  93.0331 279.7809 0017950  16.8141 343.3709 15.36555277 11248
ELFIN-B                 
1 43616U 18070D   18331.59505236 -.00000006  00000-0  00000+0 0  9993
2 43616  93.0313 279.6654 0019231  21.0457 339.1824 15.36712922 11218
ELFIN-A                 
1 43617U 18070E   18331.39820085 -.00000007  00000-0  00000-0 0  9996
2 43617  93.0357 279.6436 0019007  15.9025 344.2861 15.36747135 11187
DEBRISSAT-1             
1 43621U 98067PM  18331.91286460  .00071466  00000-0  74907-3 0  9992
2 43621  51.6461 279.5751 0008983  85.4002 274.7983 15.63691006 11238
CUBEBEL-1 (BSUSAT-1)    
1 43666U 18083E   18332.16314817  .00000818  00000-0  44576-4 0  9990
2 43666  97.5372 352.8834 0015536 165.5743 267.3562 15.17148436  4571
DEBRISSAT-2             
1 43680U 98067PR  18331.95414651  .00012246  00000-0  17816-3 0  9993
2 43680  51.6436 281.2975 0004916  98.5808 261.5736 15.56174772 24966
